NORAD_CAT_ID,OBJECT_NAME,OBJECT_TYPE,EPOCH,MEAN_MOTION,ECCENTRICITY,INCLINATION,RA_OF_ASC_NODE,ARG_OF_PERICENTER,MEAN_ANOMALY,BSTAR,MEAN_MOTION_DOT,MEAN_MOTION_DDOT,TLE_LINE0,TLE_LINE1,TLE_LINE2,SEMIMAJOR_AXIS,PERIOD,APOGEE,PERIGEE,DECAYED
49762.0,STARLINK-3195,PAYLOAD,2023-12-20 19:00:12,15.08841481,0.0001583,53.2162,174.8863,94.2325,265.8848,3.5103e-06,-2.32e-06,0.0,0 STARLINK-3195,1 49762U 21115AQ  23354.79180944 -.00000232  00000-0  35103-5 0  9992,2 49762  53.2162 174.8863 0001583  94.2325 265.8848 15.08841481114522,6917.876,95.437,540.836,538.646,0.0
49762.0,STARLINK-3195,PAYLOAD,2023-12-21 15:40:13,15.08835177,0.000167,53.2165,171.021,105.7128,254.4048,-2.2781e-05,-6.51e-06,0.0,0 STARLINK-3195,1 49762U 21115AQ  23355.65293444 -.00000651  00000-0 -22781-4 0  9991,2 49762  53.2165 171.0210 0001670 105.7128 254.4048 15.08835177114651,6917.895,95.438,540.915,538.605,0.0
49762.0,STARLINK-3195,PAYLOAD,2023-12-22 17:06:22,15.08847957,0.0001236,53.2159,166.2643,77.5233,282.5897,8.7256e-05,1.101e-05,0.0,0 STARLINK-3195,1 49762U 21115AQ  23356.71276126  .00001101  00000-0  87256-4 0  9994,2 49762  53.2159 166.2643 0001236  77.5233 282.5897 15.08847957114812,6917.856,95.437,540.576,538.866,0.0
49762.0,STARLINK-3195,PAYLOAD,2023-12-23 18:32:33,15.08839292,0.0001673,53.2164,161.509,118.3786,241.7375,-5.5563e-05,-1.172e-05,0.0,0 STARLINK-3195,1 49762U 21115AQ  23357.77261360 -.00001172  00000-0 -55563-4 0  9991,2 49762  53.2164 161.5090 0001673 118.3786 241.7375 15.08839292114972,6917.883,95.438,540.905,538.59,0.0
49762.0,STARLINK-3195,PAYLOAD,2023-12-23 21:43:20,15.08834328,0.0002518,53.217,160.9147,137.3752,222.7436,4.5009e-05,4.28e-06,0.0,0 STARLINK-3195,1 49762U 21115AQ  23357.90509321  .00000428  00000-0  45009-4 0  9993,2 49762  53.2170 160.9147 0002518 137.3752 222.7436 15.08834328113889,6917.898,95.438,541.505,538.021,0.0
49762.0,STARLINK-3195,PAYLOAD,2023-12-24 13:37:11,15.08833428,0.0001381,53.2156,157.9416,102.7019,257.4128,0.00013528,1.865e-05,0.0,0 STARLINK-3195,1 49762U 21115AQ  23358.56749063  .00001865  00000-0  13528-3 0  9991,2 49762  53.2156 157.9416 0001381 102.7019 257.4128 15.08833428113981,6917.9,95.438,540.721,538.81,0.0
49762.0,STARLINK-3195,PAYLOAD,2023-12-24 18:23:20,15.08847005,0.0001313,53.2156,157.0493,104.7774,255.3363,6.3982e-05,7.31e-06,0.0,0 STARLINK-3195,1 49762U 21115AQ  23358.76620564  .00000731  00000-0  63982-4 0  9998,2 49762  53.2156 157.0493 0001313 104.7774 255.3363 15.08847005115124,6917.859,95.437,540.632,538.816,0.0
49762.0,STARLINK-3195,PAYLOAD,2023-12-25 10:17:12,15.08838839,0.000128,53.2156,154.0765,96.6211,263.4927,5.9948e-05,6.66e-06,0.0,0 STARLINK-3195,1 49762U 21115AQ  23359.42861397  .00000666  00000-0  59948-4 0  9997,2 49762  53.2156 154.0765 0001280  96.6211 263.4927 15.08838839115223,6917.884,95.438,540.634,538.863,0.0
49762.0,STARLINK-3195,PAYLOAD,2023-12-25 13:27:58,15.08838945,0.000129,53.2156,153.4819,82.2613,277.8525,4.4846e-05,4.26e-06,0.0,0 STARLINK-3195,1 49762U 21115AQ  23359.56109494  .00000426  00000-0  44846-4 0  9990,2 49762  53.2156 153.4819 0001290  82.2613 277.8525 15.08838945114134,6917.884,95.438,540.641,538.856,0.0
49762.0,STARLINK-3195,PAYLOAD,2023-12-25 16:38:44,15.08838105,0.0001287,53.2158,152.8873,90.1905,269.9235,5.9882e-05,6.65e-06,0.0,0 STARLINK-3195,1 49762U 21115AQ  23359.69357470  .00000665  00000-0  59882-4 0  9994,2 49762  53.2158 152.8873 0001287  90.1905 269.9235 15.08838105114157,6917.886,95.438,540.642,538.861,0.0
49762.0,STARLINK-3195,PAYLOAD,2023-12-26 14:54:08,15.08841266,0.0001263,53.2162,148.7232,91.3613,268.7524,-4.4246e-06,-3.58e-06,0.0,0 STARLINK-3195,1 49762U 21115AQ  23360.62093524 -.00000358  00000-0 -44246-5 0  9996,2 49762  53.2162 148.7232 0001263  91.3613 268.7524 15.08841266114293,6917.877,95.437,540.615,538.868,0.0
49762.0,STARLINK-3195,PAYLOAD,2023-12-26 19:40:17,15.08847202,0.0001227,53.2164,147.831,90.0862,270.0271,1.2569e-05,-8.8e-07,0.0,0 STARLINK-3195,1 49762U 21115AQ  23360.81965052 -.00000088  00000-0  12569-4 0  9992,2 49762  53.2164 147.8310 0001227  90.0862 270.0271 15.08847202115432,6917.858,95.437,540.572,538.875,0.0
49762.0,STARLINK-3195,PAYLOAD,2023-12-27 14:44:56,15.08829232,0.0001339,53.2165,144.262,89.6076,270.5069,0.00018823,2.708e-05,0.0,0 STARLINK-3195,1 49762U 21115AQ  23361.61453726  .00002708  00000-0  18823-3 0  9999,2 49762  53.2165 144.2620 0001339  89.6076 270.5069 15.08829232114446,6917.913,95.438,540.705,538.852,0.0
49762.0,STARLINK-3195,PAYLOAD,2023-12-27 19:31:05,15.08825379,0.0001398,53.2174,143.3681,89.671,270.4443,0.00029935,4.478e-05,0.0,0 STARLINK-3195,1 49762U 21115AQ  23361.81325840  .00004478  00000-0  29935-3 0  9998,2 49762  53.2174 143.3681 0001398  89.6710 270.4443 15.08825379115582,6917.925,95.438,540.757,538.823,0.0
49762.0,STARLINK-3195,PAYLOAD,2023-12-28 14:35:43,15.08839543,0.0001384,53.2175,139.7987,91.1424,268.9726,-4.6332e-06,-3.62e-06,0.0,0 STARLINK-3195,1 49762U 21115AQ  23362.60813762 -.00000362  00000-0 -46332-5 0  9993,2 49762  53.2175 139.7987 0001384  91.1424 268.9726 15.08839543114590,6917.882,95.438,540.704,538.789,0.0
49762.0,STARLINK-3195,PAYLOAD,2023-12-28 16:11:06,15.08839434,0.000138,53.2175,139.5013,89.116,270.9991,-3.5541e-06,-3.44e-06,0.0,0 STARLINK-3195,1 49762U 21115AQ  23362.67437771 -.00000344  00000-0 -35541-5 0  9992,2 49762  53.2175 139.5013 0001380  89.1160 270.9991 15.08839434114606,6917.882,95.438,540.702,538.792,0.0
49762.0,STARLINK-3195,PAYLOAD,2023-12-29 09:40:20,15.08835826,0.0001406,53.2176,136.2303,90.5016,269.6137,1.1915e-05,-9.8e-07,0.0,0 STARLINK-3195,1 49762U 21115AQ  23363.40302078 -.00000098  00000-0  11915-4 0  9998,2 49762  53.2176 136.2303 0001406  90.5016 269.6137 15.08835826115821,6917.893,95.438,540.731,538.785,0.0
49762.0,STARLINK-3195,PAYLOAD,2023-12-29 14:26:30,15.08839614,0.0001402,53.2176,135.3386,91.1712,268.9441,3.9103e-05,3.34e-06,0.0,0 STARLINK-3195,1 49762U 21115AQ  23363.60173760  .00000334  00000-0  39103-4 0  9995,2 49762  53.2176 135.3386 0001402  91.1712 268.9441 15.08839614114747,6917.882,95.438,540.716,538.777,0.0
49762.0,STARLINK-3195,PAYLOAD,2023-12-30 12:41:54,15.08836639,0.0001432,53.2184,131.1819,98.0349,262.0806,6.0522e-05,6.75e-06,0.0,0 STARLINK-3195,1 49762U 21115AQ  23364.52910031  .00000675  00000-0  60522-4 0  9994,2 49762  53.2184 131.1819 0001432  98.0349 262.0806 15.08836639115998,6917.891,95.438,540.746,538.765,0.0
49762.0,STARLINK-3195,PAYLOAD,2023-12-30 14:17:17,15.08837657,0.0001428,53.2182,130.8842,97.6094,262.5061,6.7676e-05,7.89e-06,0.0,0 STARLINK-3195,1 49762U 21115AQ  23364.59533954  .00000789  00000-0  67676-4 0  9999,2 49762  53.2182 130.8842 0001428  97.6094 262.5061 15.08837657114892,6917.888,95.438,540.74,538.765,0.0
49762.0,STARLINK-3195,PAYLOAD,2023-12-30 17:28:03,15.08840268,0.000141,53.2182,130.2882,91.6999,268.4155,8.1725e-05,1.013e-05,0.0,0 STARLINK-3195,1 49762U 21115AQ  23364.72781776  .00001013  00000-0  81725-4 0  9993,2 49762  53.2182 130.2882 0001410  91.6999 268.4155 15.08840268114913,6917.88,95.438,540.72,538.769,0.0
49762.0,STARLINK-3195,PAYLOAD,2023-12-31 15:43:28,15.08836501,0.0001491,53.2187,126.1259,78.7101,281.4059,-6.7658e-06,-3.96e-06,0.0,0 STARLINK-3195,1 49762U 21115AQ  23365.65518666 -.00000396  00000-0 -67658-5 0  9997,2 49762  53.2187 126.1259 0001491  78.7101 281.4059 15.08836501116162,6917.891,95.438,540.788,538.725,0.0
49762.0,STARLINK-3195,PAYLOAD,2024-01-01 13:58:51,15.08831444,0.0001582,53.2189,121.9629,77.0482,283.0687,0.00018039,2.583e-05,0.0,0 STARLINK-3195,1 49762U 21115AQ  24001.58254400  .00002583  00000-0  18039-3 0  9995,2 49762  53.2189 121.9629 0001582  77.0482 283.0687 15.08831444115191,6917.907,95.438,540.866,538.677,0.0
49762.0,STARLINK-3195,PAYLOAD,2024-01-01 15:34:14,15.08848179,0.0001387,53.2179,121.6646,77.232,282.8828,1.7096e-05,-1.6e-07,0.0,0 STARLINK-3195,1 49762U 21115AQ  24001.64877937 -.00000016  00000-0  17096-4 0  9991,2 49762  53.2179 121.6646 0001387  77.2320 282.8828 15.08848179116314,6917.855,95.437,540.68,538.761,0.0
49762.0,STARLINK-3195,PAYLOAD,2024-01-02 12:14:15,15.08840269,0.0001529,53.2182,117.7996,74.0124,286.1036,7.2155e-05,8.61e-06,0.0,0 STARLINK-3195,1 49762U 21115AQ  24002.50990314  .00000861  00000-0  72155-4 0  9996,2 49762  53.2182 117.7996 0001529  74.0124 286.1036 15.08840269116441,6917.88,95.438,540.802,538.687,0.0
49762.0,STARLINK-3195,PAYLOAD,2024-01-02 13:49:38,15.08841468,0.0001611,53.2181,117.5023,70.7311,289.3855,8.3856e-05,1.047e-05,0.0,0 STARLINK-3195,1 49762U 21115AQ  24002.57614229  .00001047  00000-0  83856-4 0  9998,2 49762  53.2181 117.5023 0001611  70.7311 289.3855 15.08841468115346,6917.876,95.437,540.855,538.626,0.0
49762.0,STARLINK-3195,PAYLOAD,2024-01-03 12:05:03,15.08835444,0.0001483,53.2168,113.3398,72.2035,287.9118,-1.2738e-05,-4.91e-06,0.0,0 STARLINK-3195,1 49762U 21115AQ  24003.50350889 -.00000491  00000-0 -12738-4 0  9996,2 49762  53.2168 113.3398 0001483  72.2035 287.9118 15.08835444116598,6917.894,95.438,540.785,538.733,0.0
49762.0,STARLINK-3195,PAYLOAD,2024-01-03 13:40:26,15.08836049,0.0001526,53.2169,113.0422,69.9896,290.126,-1.9919e-05,-6.05e-06,0.0,0 STARLINK-3195,1 49762U 21115AQ  24003.56974906 -.00000605  00000-0 -19919-4 0  9999,2 49762  53.2169 113.0422 0001526  69.9896 290.1260 15.08836049115494,6917.892,95.438,540.813,538.702,0.0
49762.0,STARLINK-3195,PAYLOAD,2024-01-04 11:55:49,15.08839609,0.000149,53.2179,108.8787,98.8495,261.2666,2.9498e-05,1.82e-06,0.0,0 STARLINK-3195,1 49762U 21115AQ  24004.49710441  .00000182  00000-0  29498-4 0  9995,2 49762  53.2179 108.8787 0001490  98.8495 261.2666 15.08839609116740,6917.882,95.438,540.777,538.716,0.0
49762.0,STARLINK-3195,PAYLOAD,2024-01-04 13:31:12,15.08843452,0.0001424,53.218,108.58,98.9328,261.1825,1.6851e-05,-2e-07,0.0,0 STARLINK-3195,1 49762U 21115AQ  24004.56334245 -.00000020  00000-0  16851-4 0  9998,2 49762  53.2180 108.5800 0001424  98.9328 261.1825 15.08843452115643,6917.87,95.437,540.72,538.75,0.0
